{"type": "FeatureCollection", "features": [ {"type": "Feature", "properties": {"norad_id": 43108, "name": "BEIDOU-3 M8 (C28)", "group": "beidou", "lat": -14.576732451534447, "lon": -61.921692943554866, "alt_km": 21525.11494249413, "timestamp": "2025-12-12T22:42:12.810848+00:00", "meta": {"OBJECT_NAME": "BEIDOU-3 M8 (C28)", "OBJECT_ID": "2018-003B", "EPOCH": "2025-12-11T21:34:27.935616", "MEAN_MOTION": 1.86230641, "ECCENTRICITY": 0.0004792, "INCLINATION": 54.4903, "RA_OF_ASC_NODE": 308.8266, "ARG_OF_PERICENTER": 274.144, "MEAN_ANOMALY": 85.7923, "EPHEMERIS_TYPE": 0, "CLASSIFICATION_TYPE": "U", "NORAD_CAT_ID": 43108, "ELEMENT_SET_NO": 999, "REV_AT_EPOCH": 5387, "BSTAR": 0, "MEAN_MOTION_DOT": -9e-07, "MEAN_MOTION_DDOT": 0}, "tle": {"line1": "1 43108U 18003B   25345.89893444 -.00000090  00000+0  00000+0 0  9994", "line2": "2 43108  54.4903 308.8266 0004792 274.1440  85.7923  1.86230641 53878"}}, "geometry": {"type": "Point", "coordinates": [-61.921692943554866, -14.576732451534447]}}, {"type": "Feature", "properties": {"norad_id": 43207, "name": "BEIDOU-3 M4 (C22)", "group": "beidou", "lat": 36.66978283597374, "lon": 98.82318080672523, "alt_km": 21514.175143979723, "timestamp": "2025-12-12T22:42:12.810860+00:00", "meta": {"OBJECT_NAME": "BEIDOU-3 M4 (C22)", "OBJECT_ID": "2018-018A", "EPOCH": "2025-12-10T17:31:13.270944", "MEAN_MOTION": 1.86230984, "ECCENTRICITY": 0.00041357, "INCLINATION": 56.4844, "RA_OF_ASC_NODE": 69.3703, "ARG_OF_PERICENTER": 10.5342, "MEAN_ANOMALY": 349.4961, "EPHEMERIS_TYPE": 0, "CLASSIFICATION_TYPE": "U", "NORAD_CAT_ID": 43207, "ELEMENT_SET_NO": 999, "REV_AT_EPOCH": 5323, "BSTAR": 0, "MEAN_MOTION_DOT": -5.7e-07, "MEAN_MOTION_DDOT": 0}, "tle": {"line1": "1 43207U 18018A   25344.73001471 -.00000057  00000+0  00000+0 0  9996", "line2": "2 43207  56.4844  69.3703 0004135  10.5342 349.4961  1.86230984 53235"}}, "geometry": {"type": "Point", "coordinates": [98.82318080672523, 36.66978283597374]}}, {"type": "Feature", "properties": {"norad_id": 43208, "name": "BEIDOU-3 M3 (C21)", "group": "beidou", "lat": 0.9145834602014201, "lon": 69.91297319432725, "alt_km": 21515.058783158103, "timestamp": "2025-12-12T22:42:12.810871+00:00", "meta": {"OBJECT_NAME": "BEIDOU-3 M3 (C21)", "OBJECT_ID": "2018-018B", "EPOCH": "2025-12-10T19:07:00.567840", "MEAN_MOTION": 1.8623124, "ECCENTRICITY": 0.0006564, "INCLINATION": 56.484, "RA_OF_ASC_NODE": 69.3721, "ARG_OF_PERICENTER": 317.0111, "MEAN_ANOMALY": 42.9593, "EPHEMERIS_TYPE": 0, "CLASSIFICATION_TYPE": "U", "NORAD_CAT_ID": 43208, "ELEMENT_SET_NO": 999, "REV_AT_EPOCH": 5323, "BSTAR": 0, "MEAN_MOTION_DOT": -5.7e-07, "MEAN_MOTION_DDOT": 0}, "tle": {"line1": "1 43208U 18018B   25344.79653435 -.00000057  00000+0  00000+0 0  9996", "line2": "2 43208  56.4840  69.3721 0006564 317.0111  42.9593  1.86231240 53231"}}, "geometry": {"type": "Point", "coordinates": [69.91297319432725, 0.9145834602014201]}}, {"type": "Feature", "properties": {"norad_id": 43245, "name": "BEIDOU-3 M9 (C29)", "group": "beidou", "lat": -28.661247914716373, "lon": 149.50931594906226, "alt_km": 21529.548550066036, "timestamp": "2025-12-12T22:42:12.810882+00:00", "meta": {"OBJECT_NAME": "BEIDOU-3 M9 (C29)", "OBJECT_ID": "2018-029A", "EPOCH": "2025-12-09T09:38:36.109248", "MEAN_MOTION": 1.86227964, "ECCENTRICITY": 0.00016746, "INCLINATION": 54.3687, "RA_OF_ASC_NODE": 306.5834, "ARG_OF_PERICENTER": 274.0787, "MEAN_ANOMALY": 85.8921, "EPHEMERIS_TYPE": 0, "CLASSIFICATION_TYPE": "U", "NORAD_CAT_ID": 43245, "ELEMENT_SET_NO": 999, "REV_AT_EPOCH": 5236, "BSTAR": 0, "MEAN_MOTION_DOT": -7.6e-07, "MEAN_MOTION_DDOT": 0}, "tle": {"line1": "1 43245U 18029A   25343.40180682 -.00000076  00000+0  00000+0 0  9996", "line2": "2 43245  54.3687 306.5834 0001674 274.0787  85.8921  1.86227964 52369"}}, "geometry": {"type": "Point", "coordinates": [149.50931594906226, -28.661247914716373]}}, {"type": "Feature", "properties": {"norad_id": 43246, "name": "BEIDOU-3 M10 (C30)", "group": "beidou", "lat": -53.05839251425562, "lon": -161.09899960812544, "alt_km": 21535.923773707214, "timestamp": "2025-12-12T22:42:12.810893+00:00", "meta": {"OBJECT_NAME": "BEIDOU-3 M10 (C30)", "OBJECT_ID": "2018-029B", "EPOCH": "2025-12-10T09:51:50.083776", "MEAN_MOTION": 1.86228788, "ECCENTRICITY": 0.00039909, "INCLINATION": 54.3654, "RA_OF_ASC_NODE": 306.5763, "ARG_OF_PERICENTER": 359.52, "MEAN_ANOMALY": 0.4707, "EPHEMERIS_TYPE": 0, "CLASSIFICATION_TYPE": "U", "NORAD_CAT_ID": 43246, "ELEMENT_SET_NO": 999, "REV_AT_EPOCH": 5236, "BSTAR": 0, "MEAN_MOTION_DOT": -8.1e-07, "MEAN_MOTION_DDOT": 0}, "tle": {"line1": "1 43246U 18029B   25344.41099634 -.00000081  00000+0  00000+0 0  9991", "line2": "2 43246  54.3654 306.5763 0003990 359.5200   0.4707  1.86228788 52367"}}, "geometry": {"type": "Point", "coordinates": [-161.09899960812544, -53.05839251425562]}}, {"type": "Feature", "properties": {"norad_id": 43539, "name": "BEIDOU-2 IGSO-7 (C16)", "group": "beidou", "lat": 7.710662951257276, "lon": 170.07682072807725, "alt_km": 36059.96023191073, "timestamp": "2025-12-12T22:42:12.810905+00:00", "meta": {"OBJECT_NAME": "BEIDOU-2 IGSO-7 (C16)", "OBJECT_ID": "2018-057A", "EPOCH": "2025-12-11T21:50:21.546240", "MEAN_MOTION": 1.00257146, "ECCENTRICITY": 0.0092462, "INCLINATION": 55.1747, "RA_OF_ASC_NODE": 164.678, "ARG_OF_PERICENTER": 235.1865, "MEAN_ANOMALY": 119.5447, "EPHEMERIS_TYPE": 0, "CLASSIFICATION_TYPE": "U", "NORAD_CAT_ID": 43539, "ELEMENT_SET_NO": 999, "REV_AT_EPOCH": 2724, "BSTAR": 0, "MEAN_MOTION_DOT": -4.7e-07, "MEAN_MOTION_DDOT": 0}, "tle": {"line1": "1 43539U 18057A   25345.90997160 -.00000047  00000+0  00000+0 0  9995", "line2": "2 43539  55.1747 164.6780 0092462 235.1865 119.5447  1.00257146 27242"}}, "geometry": {"type": "Point", "coordinates": [170.07682072807725, 7.710662951257276]}}, {"type": "Feature", "properties": {"norad_id": 43581, "name": "BEIDOU-3 M5 (C23)", "group": "beidou", "lat": 49.96658911579406, "lon": -50.97589283531253, "alt_km": 21524.989771056942, "timestamp": "2025-12-12T22:42:12.810916+00:00", "meta": {"OBJECT_NAME": "BEIDOU-3 M5 (C23)", "OBJECT_ID": "2018-062A", "EPOCH": "2025-12-11T17:01:48.232128", "MEAN_MOTION": 1.86228797, "ECCENTRICITY": 0.0002116, "INCLINATION": 54.089, "RA_OF_ASC_NODE": 188.6781, "ARG_OF_PERICENTER": 352.1454, "MEAN_ANOMALY": 7.9101, "EPHEMERIS_TYPE": 0, "CLASSIFICATION_TYPE": "U", "NORAD_CAT_ID": 43581, "ELEMENT_SET_NO": 999, "REV_AT_EPOCH": 5014, "BSTAR": 0, "MEAN_MOTION_DOT": 7.1e-07, "MEAN_MOTION_DDOT": 0}, "tle": {"line1": "1 43581U 18062A   25345.70958602  .00000071  00000+0  00000+0 0  9990", "line2": "2 43581  54.0890 188.6781 0002116 352.1454   7.9101  1.86228797 50140"}}, "geometry": {"type": "Point", "coordinates": [-50.97589283531253, 49.96658911579406]}}, {"type": "Feature", "properties": {"norad_id": 43582, "name": "BEIDOU-3 M6 (C24)", "group": "beidou", "lat": -16.77978937168396, "lon": 21.253928651520695, "alt_km": 21550.13136792964, "timestamp": "2025-12-12T22:42:12.810928+00:00", "meta": {"OBJECT_NAME": "BEIDOU-3 M6 (C24)", "OBJECT_ID": "2018-062B", "EPOCH": "2025-12-11T13:44:38.713920", "MEAN_MOTION": 1.86229866, "ECCENTRICITY": 0.0007837, "INCLINATION": 54.0887, "RA_OF_ASC_NODE": 188.6718, "ARG_OF_PERICENTER": 47.121, "MEAN_ANOMALY": 313.0034, "EPHEMERIS_TYPE": 0, "CLASSIFICATION_TYPE": "U", "NORAD_CAT_ID": 43582, "ELEMENT_SET_NO": 999, "REV_AT_EPOCH": 5014, "BSTAR": 0, "MEAN_MOTION_DOT": 6.9e-07, "MEAN_MOTION_DDOT": 0}, "tle": {"line1": "1 43582U 18062B   25345.57267030  .00000069  00000+0  00000+0 0  9991", "line2": "2 43582  54.0887 188.6718 0007837  47.1210 313.0034  1.86229866 50147"}}, "geometry": {"type": "Point", "coordinates": [21.253928651520695, -16.77978937168396]}}, {"type": "Feature", "properties": {"norad_id": 43602, "name": "BEIDOU-3 M12 (C26)", "group": "beidou", "lat": -45.96751012129992, "lon": 55.69798313718482, "alt_km": 21557.40784809054, "timestamp": "2025-12-12T22:42:12.810939+00:00", "meta": {"OBJECT_NAME": "BEIDOU-3 M12 (C26)", "OBJECT_ID": "2018-067A", "EPOCH": "2025-12-11T12:15:06.004224", "MEAN_MOTION": 1.86227612, "ECCENTRICITY": 0.00091491, "INCLINATION": 54.1831, "RA_OF_ASC_NODE": 187.4051, "ARG_OF_PERICENTER": 41.0073, "MEAN_ANOMALY": 319.1184, "EPHEMERIS_TYPE": 0, "CLASSIFICATION_TYPE": "U", "NORAD_CAT_ID": 43602, "ELEMENT_SET_NO": 999, "REV_AT_EPOCH": 4962, "BSTAR": 0, "MEAN_MOTION_DOT": 7.1e-07, "MEAN_MOTION_DDOT": 0}, "tle": {"line1": "1 43602U 18067A   25345.51048616  .00000071  00000+0  00000+0 0  9993", "line2": "2 43602  54.1831 187.4051 0009149  41.0073 319.1184  1.86227612 49626"}}, "geometry": {"type": "Point", "coordinates": [55.69798313718482, -45.96751012129992]}}, {"type": "Feature", "properties": {"norad_id": 43603, "name": "BEIDOU-3 M11 (C25)", "group": "beidou", "lat": 22.078632368507716, "lon": -9.71104464234317, "alt_km": 21532.46519354551, "timestamp": "2025-12-12T22:42:12.810951+00:00", "meta": {"OBJECT_NAME": "BEIDOU-3 M11 (C25)", "OBJECT_ID": "2018-067B", "EPOCH": "2025-12-11T15:28:47.340768", "MEAN_MOTION": 1.86227129, "ECCENTRICITY": 0.0005575, "INCLINATION": 54.1804, "RA_OF_ASC_NODE": 187.3644, "ARG_OF_PERICENTER": 36.7806, "MEAN_ANOMALY": 323.3147, "EPHEMERIS_TYPE": 0, "CLASSIFICATION_TYPE": "U", "NORAD_CAT_ID": 43603, "ELEMENT_SET_NO": 999, "REV_AT_EPOCH": 4965, "BSTAR": 0, "MEAN_MOTION_DOT": 7.3e-07, "MEAN_MOTION_DDOT": 0}, "tle": {"line1": "1 43603U 18067B   25345.64499237  .00000073  00000+0  00000+0 0  9999", "line2": "2 43603  54.1804 187.3644 0005575  36.7806 323.3147  1.86227129 49650"}}, "geometry": {"type": "Point", "coordinates": [-9.71104464234317, 22.078632368507716]}}]}